[Satellite]
VERSION=1.1
NAME=FLOCK 3P-52
NICKNAME=FLOCK 3P-52
TLE1=1 42030U 17008CL  18020.91986641  .00002786  00000-0  11851-3 0  9992
TLE2=2 42030  97.4698  86.6194 0008818 158.4157 201.7453 15.23832337 51627
